ONEWEB-0687             
1 61595U 24188B   25106.16668981 -.01035959  00000+0 -40371+0 0  9995
2 61595  86.9959  95.0564 0005423 347.1612 127.6933 14.33208705 27565
ONEWEB-0688             
1 61596U 24188C   25106.16668981 -.01084699  00000+0 -40341+0 0  9998
2 61596  86.9839  95.0132 0004419  10.3563 288.3307 14.35207838 27346
ONEWEB-0689             
1 61597U 24188D   25106.58335648  .00000013  00000+0  00000+0 0  9999
2 61597  87.8922 106.1462 0001267 113.9737  84.5068 13.14602990 26669
ONEWEB-0690             
1 61598U 24188E   25106.46091639  .00003732  00000+0  88233-2 0  9994
2 61598  87.9237 106.0833 0003881  81.6131 278.5444 13.23171663 26801
ONEWEB-0691             
1 61599U 24188F   25105.27337134 -.00001283  00000+0 -30765-2 0  9994
2 61599  87.9397 106.4045 0003949 102.5215 257.6361 13.23144618 28391
ONEWEB-0692             
1 61600U 24188G   25106.58335648 -.00035960  00000+0 -92854-1 0  9995
2 61600  87.9142 106.1476 0002035 104.9362 237.1960 13.17766877 26779
ONEWEB-0693             
1 61601U 24188H   25106.58335648 -.01053668  00000+0 -45111+0 0  9994
2 61601  87.0307  94.8994 0004560  39.8535 103.6117 14.28432986 27557
ONEWEB-0695             
1 61602U 24188J   25106.58335648 -.00061202  00000+0 -17455+0 0  9997
2 61602  87.8793 106.1315 0003331  94.7622  99.6487 13.11145373 26792
